ORBCOMM FM115           
1 41186U 15081H   25307.88143345  .00001018  00000+0  23165-3 0  9997
2 41186  46.9978  95.0372 0001030 302.5171  57.5617 14.62797151528227
ORBCOMM FM108           
1 41187U 15081J   25307.32302938  .00000838  00000+0  21535-3 0  9990
2 41187  47.0036 169.7693 0002673 238.9881 121.0742 14.58456377527103
ORBCOMM FM117           
1 41188U 15081K   25307.97436940  .00000797  00000+0  20661-3 0  9996
2 41188  46.9999 165.4083 0003244 249.6696 110.3841 14.58458299527245
ORBCOMM FM116           
1 41189U 15081L   25308.16190060  .00001145  00000+0  28017-3 0  9990
2 41189  47.0024 254.3086 0001144  62.2056 297.8945 14.58535137526088
